{"type": "FeatureCollection", "features": [ {"type": "Feature", "properties": {"norad_id": 29750, "name": "FENGYUN 1C DEB", "group": "fengyun-1c-debris", "lat": 70.68240845607983, "lon": -124.984515485305, "alt_km": 876.7309665812891, "timestamp": "2025-12-26T04:40:06.057500+00:00", "meta": {"OBJECT_NAME": "FENGYUN 1C DEB", "OBJECT_ID": "1999-025AQ", "EPOCH": "2025-12-25T15:07:17.895072", "MEAN_MOTION": 14.09654984, "ECCENTRICITY": 0.0035101, "INCLINATION": 98.7535, "RA_OF_ASC_NODE": 28.3925, "ARG_OF_PERICENTER": 264.0084, "MEAN_ANOMALY": 220.5827, "EPHEMERIS_TYPE": 0, "CLASSIFICATION_TYPE": "U", "NORAD_CAT_ID": 29750, "ELEMENT_SET_NO": 999, "REV_AT_EPOCH": 97255, "BSTAR": 0.00023927, "MEAN_MOTION_DOT": 3.79e-06, "MEAN_MOTION_DDOT": 0}, "tle": {"line1": "1 29750U 99025AQ  25359.63006823  .00000379  00000+0  23927-3 0  9994", "line2": "2 29750  98.7535  28.3925 0035101 264.0084 220.5827 14.09654984972559"}}, "geometry": {"type": "Point", "coordinates": [-124.984515485305, 70.68240845607983]}}, {"type": "Feature", "properties": {"norad_id": 29751, "name": "FENGYUN 1C DEB", "group": "fengyun-1c-debris", "lat": -21.206057309763374, "lon": -155.66533446253453, "alt_km": 830.0378463881716, "timestamp": "2025-12-26T04:40:06.057512+00:00", "meta": {"OBJECT_NAME": "FENGYUN 1C DEB", "OBJECT_ID": "1999-025AR", "EPOCH": "2025-12-25T00:53:12.323616", "MEAN_MOTION": 14.23638738, "ECCENTRICITY": 0.00901712, "INCLINATION": 98.5403, "RA_OF_ASC_NODE": 26.5531, "ARG_OF_PERICENTER": 103.7788, "MEAN_ANOMALY": 287.2743, "EPHEMERIS_TYPE": 0, "CLASSIFICATION_TYPE": "U", "NORAD_CAT_ID": 29751, "ELEMENT_SET_NO": 999, "REV_AT_EPOCH": 98248, "BSTAR": 0.00015747264, "MEAN_MOTION_DOT": 3.33e-06, "MEAN_MOTION_DDOT": 0}, "tle": {"line1": "1 29751U 99025AR  25359.03694819  .00000333  00000+0  15747-3 0  9998", "line2": "2 29751  98.5403  26.5531 0090171 103.7788 287.2743 14.23638738982488"}}, "geometry": {"type": "Point", "coordinates": [-155.66533446253453, -21.206057309763374]}}, {"type": "Feature", "properties": {"norad_id": 29754, "name": "FENGYUN 1C DEB", "group": "fengyun-1c-debris", "lat": 60.120000888043464, "lon": -61.23365408590384, "alt_km": 818.7280215786086, "timestamp": "2025-12-26T04:40:06.057522+00:00", "meta": {"OBJECT_NAME": "FENGYUN 1C DEB", "OBJECT_ID": "1999-025AU", "EPOCH": "2025-12-25T12:58:25.483008", "MEAN_MOTION": 14.19197491, "ECCENTRICITY": 0.0036609, "INCLINATION": 98.8844, "RA_OF_ASC_NODE": 102.3135, "ARG_OF_PERICENTER": 203.1384, "MEAN_ANOMALY": 176.6774, "EPHEMERIS_TYPE": 0, "CLASSIFICATION_TYPE": "U", "NORAD_CAT_ID": 29754, "ELEMENT_SET_NO": 999, "REV_AT_EPOCH": 97536, "BSTAR": 0.00092422, "MEAN_MOTION_DOT": 1.904e-05, "MEAN_MOTION_DDOT": 0}, "tle": {"line1": "1 29754U 99025AU  25359.54057272  .00001904  00000+0  92422-3 0  9993", "line2": "2 29754  98.8844 102.3135 0036609 203.1384 176.6774 14.19197491975364"}}, "geometry": {"type": "Point", "coordinates": [-61.23365408590384, 60.120000888043464]}}, {"type": "Feature", "properties": {"norad_id": 29758, "name": "FENGYUN 1C DEB", "group": "fengyun-1c-debris", "lat": 57.86350987635641, "lon": 102.01858124555494, "alt_km": 763.0590996904493, "timestamp": "2025-12-26T04:40:06.057535+00:00", "meta": {"OBJECT_NAME": "FENGYUN 1C DEB", "OBJECT_ID": "1999-025AY", "EPOCH": "2025-12-25T06:59:10.847328", "MEAN_MOTION": 14.41172161, "ECCENTRICITY": 0.0022359, "INCLINATION": 98.8551, "RA_OF_ASC_NODE": 115.4521, "ARG_OF_PERICENTER": 269.6138, "MEAN_ANOMALY": 144.8363, "EPHEMERIS_TYPE": 0, "CLASSIFICATION_TYPE": "U", "NORAD_CAT_ID": 29758, "ELEMENT_SET_NO": 999, "REV_AT_EPOCH": 97852, "BSTAR": 0.0026845, "MEAN_MOTION_DOT": 8.647e-05, "MEAN_MOTION_DDOT": 0}, "tle": {"line1": "1 29758U 99025AY  25359.29109777  .00008647  00000+0  26845-2 0  9993", "line2": "2 29758  98.8551 115.4521 0022359 269.6138 144.8363 14.41172161978522"}}, "geometry": {"type": "Point", "coordinates": [102.01858124555494, 57.86350987635641]}}, {"type": "Feature", "properties": {"norad_id": 29760, "name": "FENGYUN 1C DEB", "group": "fengyun-1c-debris", "lat": -5.5396823499237176, "lon": 2.833864787966142, "alt_km": 942.4631421333679, "timestamp": "2025-12-26T04:40:06.057548+00:00", "meta": {"OBJECT_NAME": "FENGYUN 1C DEB", "OBJECT_ID": "1999-025BA", "EPOCH": "2025-12-25T23:34:47.858304", "MEAN_MOTION": 14.08297126, "ECCENTRICITY": 0.0131382, "INCLINATION": 98.7625, "RA_OF_ASC_NODE": 1.7708, "ARG_OF_PERICENTER": 136.2932, "MEAN_ANOMALY": 224.8731, "EPHEMERIS_TYPE": 0, "CLASSIFICATION_TYPE": "U", "NORAD_CAT_ID": 29760, "ELEMENT_SET_NO": 999, "REV_AT_EPOCH": 97279, "BSTAR": 7.3139183e-05, "MEAN_MOTION_DOT": 9.4e-07, "MEAN_MOTION_DDOT": 0}, "tle": {"line1": "1 29760U 99025BA  25359.98249836  .00000094  00000+0  73139-4 0  9991", "line2": "2 29760  98.7625   1.7708 0131382 136.2932 224.8731 14.08297126972791"}}, "geometry": {"type": "Point", "coordinates": [2.833864787966142, -5.5396823499237176]}}, {"type": "Feature", "properties": {"norad_id": 29762, "name": "FENGYUN 1C DEB", "group": "fengyun-1c-debris", "lat": -65.52589068792462, "lon": 2.0160284073731973, "alt_km": 677.6591909660056, "timestamp": "2025-12-26T04:40:06.057559+00:00", "meta": {"OBJECT_NAME": "FENGYUN 1C DEB", "OBJECT_ID": "1999-025BC", "EPOCH": "2025-12-25T22:28:40.091232", "MEAN_MOTION": 14.22609235, "ECCENTRICITY": 0.02033466, "INCLINATION": 98.5807, "RA_OF_ASC_NODE": 342.3921, "ARG_OF_PERICENTER": 297.1726, "MEAN_ANOMALY": 115.7592, "EPHEMERIS_TYPE": 0, "CLASSIFICATION_TYPE": "U", "NORAD_CAT_ID": 29762, "ELEMENT_SET_NO": 999, "REV_AT_EPOCH": 98136, "BSTAR": 0.00034167417, "MEAN_MOTION_DOT": 8.95e-06, "MEAN_MOTION_DDOT": 0}, "tle": {"line1": "1 29762U 99025BC  25359.93657513  .00000895  00000+0  34167-3 0  9999", "line2": "2 29762  98.5807 342.3921 0203346 297.1726 115.7592 14.22609235981362"}}, "geometry": {"type": "Point", "coordinates": [2.0160284073731973, -65.52589068792462]}}, {"type": "Feature", "properties": {"norad_id": 29763, "name": "FENGYUN 1C DEB", "group": "fengyun-1c-debris", "lat": 12.530660020870512, "lon": 161.17153029226276, "alt_km": 783.1929066052599, "timestamp": "2025-12-26T04:40:06.057569+00:00", "meta": {"OBJECT_NAME": "FENGYUN 1C DEB", "OBJECT_ID": "1999-025BD", "EPOCH": "2025-12-25T21:24:45.715392", "MEAN_MOTION": 14.07884666, "ECCENTRICITY": 0.01280222, "INCLINATION": 98.7629, "RA_OF_ASC_NODE": 338.9135, "ARG_OF_PERICENTER": 143.4666, "MEAN_ANOMALY": 291.719, "EPHEMERIS_TYPE": 0, "CLASSIFICATION_TYPE": "U", "NORAD_CAT_ID": 29763, "ELEMENT_SET_NO": 999, "REV_AT_EPOCH": 97235, "BSTAR": 0.00027632788, "MEAN_MOTION_DOT": 4.64e-06, "MEAN_MOTION_DDOT": 0}, "tle": {"line1": "1 29763U 99025BD  25359.89219578  .00000464  00000+0  27633-3 0  9992", "line2": "2 29763  98.7629 338.9135 0128022 143.4666 291.7190 14.07884666972352"}}, "geometry": {"type": "Point", "coordinates": [161.17153029226276, 12.530660020870512]}}, {"type": "Feature", "properties": {"norad_id": 29765, "name": "FENGYUN 1C DEB", "group": "fengyun-1c-debris", "lat": 45.980388705269604, "lon": -152.78719370070343, "alt_km": 872.6937034319826, "timestamp": "2025-12-26T04:40:06.057580+00:00", "meta": {"OBJECT_NAME": "FENGYUN 1C DEB", "OBJECT_ID": "1999-025BF", "EPOCH": "2025-12-25T00:56:36.278592", "MEAN_MOTION": 14.02152125, "ECCENTRICITY": 0.00601058, "INCLINATION": 98.8289, "RA_OF_ASC_NODE": 16.8387, "ARG_OF_PERICENTER": 58.8107, "MEAN_ANOMALY": 5.779, "EPHEMERIS_TYPE": 0, "CLASSIFICATION_TYPE": "U", "NORAD_CAT_ID": 29765, "ELEMENT_SET_NO": 999, "REV_AT_EPOCH": 96923, "BSTAR": -6.8814641e-05, "MEAN_MOTION_DOT": -1.49e-06, "MEAN_MOTION_DDOT": 0}, "tle": {"line1": "1 29765U 99025BF  25359.03930878 -.00000149  00000+0 -68815-4 0  9993", "line2": "2 29765  98.8289  16.8387 0060105  58.8107   5.7790 14.02152125969239"}}, "geometry": {"type": "Point", "coordinates": [-152.78719370070343, 45.980388705269604]}}, {"type": "Feature", "properties": {"norad_id": 29766, "name": "FENGYUN 1C DEB", "group": "fengyun-1c-debris", "lat": 36.53426566554592, "lon": -57.41259724505615, "alt_km": 989.0484351503219, "timestamp": "2025-12-26T04:40:06.057591+00:00", "meta": {"OBJECT_NAME": "FENGYUN 1C DEB", "OBJECT_ID": "1999-025BG", "EPOCH": "2025-12-25T20:09:49.412736", "MEAN_MOTION": 13.97094688, "ECCENTRICITY": 0.01455533, "INCLINATION": 98.6865, "RA_OF_ASC_NODE": 308.7559, "ARG_OF_PERICENTER": 251.7005, "MEAN_ANOMALY": 163.2022, "EPHEMERIS_TYPE": 0, "CLASSIFICATION_TYPE": "U", "NORAD_CAT_ID": 29766, "ELEMENT_SET_NO": 999, "REV_AT_EPOCH": 95987, "BSTAR": 0.0009844662, "MEAN_MOTION_DOT": 1.462e-05, "MEAN_MOTION_DDOT": 0}, "tle": {"line1": "1 29766U 99025BG  25359.84015524  .00001462  00000+0  98447-3 0  9995", "line2": "2 29766  98.6865 308.7559 0145553 251.7005 163.2022 13.97094688959873"}}, "geometry": {"type": "Point", "coordinates": [-57.41259724505615, 36.53426566554592]}}, {"type": "Feature", "properties": {"norad_id": 29767, "name": "FENGYUN 1C DEB", "group": "fengyun-1c-debris", "lat": -50.23844700804929, "lon": 137.61395846640664, "alt_km": 1100.4432224948741, "timestamp": "2025-12-26T04:40:06.057602+00:00", "meta": {"OBJECT_NAME": "FENGYUN 1C DEB", "OBJECT_ID": "1999-025BH", "EPOCH": "2025-12-25T04:08:57.341760", "MEAN_MOTION": 14.03473048, "ECCENTRICITY": 0.03327, "INCLINATION": 98.1995, "RA_OF_ASC_NODE": 326.6698, "ARG_OF_PERICENTER": 25.9623, "MEAN_ANOMALY": 87.838, "EPHEMERIS_TYPE": 0, "CLASSIFICATION_TYPE": "U", "NORAD_CAT_ID": 29767, "ELEMENT_SET_NO": 999, "REV_AT_EPOCH": 95774, "BSTAR": 0.0027809, "MEAN_MOTION_DOT": 7.088e-05, "MEAN_MOTION_DDOT": 0}, "tle": {"line1": "1 29767U 99025BH  25359.17288590  .00007088  00000+0  27809-2 0  9990", "line2": "2 29767  98.1995 326.6698 0332700  25.9623  87.8380 14.03473048957746"}}, "geometry": {"type": "Point", "coordinates": [137.61395846640664, -50.23844700804929]}}]}